CCSDS_OMM_VERS = 2.0
CREATION_DATE  = 
ORIGINATOR     = 

OBJECT_NAME    = GSLV R/B
OBJECT_ID      = 2022-138AN
CENTER_NAME    = EARTH
REF_FRAME      = TEME
TIME_SYSTEM    = UTC
MEAN_ELEMENT_THEORY = SGP/SGP4

EPOCH          = 2026-03-05T17:01:35.776704
MEAN_MOTION    = 14.96742639
ECCENTRICITY   = .0022469
INCLINATION    = 87.3887
RA_OF_ASC_NODE = 167.6944
ARG_OF_PERICENTER = 160.4976
MEAN_ANOMALY   = 199.7121

EPHEMERIS_TYPE = 0
CLASSIFICATION_TYPE = U
NORAD_CAT_ID   = 54149
ELEMENT_SET_NO = 999
REV_AT_EPOCH   = 18333
BSTAR          = .40528E-3
MEAN_MOTION_DOT = .4682E-4
MEAN_MOTION_DDOT = 0

CCSDS_OMM_VERS = 2.0
CREATION_DATE  = 
ORIGINATOR     = 

OBJECT_NAME    = XRISM
OBJECT_ID      = 2023-137A
CENTER_NAME    = EARTH
REF_FRAME      = TEME
TIME_SYSTEM    = UTC
MEAN_ELEMENT_THEORY = SGP/SGP4

EPOCH          = 2026-03-05T19:26:58.261056
MEAN_MOTION    = 15.11447555
ECCENTRICITY   = .0008081
INCLINATION    = 31.0028
RA_OF_ASC_NODE = 308.7544
ARG_OF_PERICENTER = 358.9936
MEAN_ANOMALY   = 1.0685

EPHEMERIS_TYPE = 0
CLASSIFICATION_TYPE = U
NORAD_CAT_ID   = 57800
ELEMENT_SET_NO = 999
REV_AT_EPOCH   = 13720
BSTAR          = .40521E-3
MEAN_MOTION_DOT = .7125E-4
MEAN_MOTION_DDOT = 0

CCSDS_OMM_VERS = 2.0
CREATION_DATE  = 
ORIGINATOR     = 

OBJECT_NAME    = ACS3
OBJECT_ID      = 2024-077B
CENTER_NAME    = EARTH
REF_FRAME      = TEME
TIME_SYSTEM    = UTC
MEAN_ELEMENT_THEORY = SGP/SGP4

EPOCH          = 2026-03-05T19:48:44.589312
MEAN_MOTION    = 13.89413000
ECCENTRICITY   = .0056747
INCLINATION    = 97.2101
RA_OF_ASC_NODE = 6.8063
ARG_OF_PERICENTER = 86.8820
MEAN_ANOMALY   = 273.8835

EPHEMERIS_TYPE = 0
CLASSIFICATION_TYPE = U
NORAD_CAT_ID   = 59588
ELEMENT_SET_NO = 999
REV_AT_EPOCH   = 9366
BSTAR          = .22955E-1
MEAN_MOTION_DOT = .28446E-3
MEAN_MOTION_DDOT = 0

CCSDS_OMM_VERS = 2.0
CREATION_DATE  = 
ORIGINATOR     = 

OBJECT_NAME    = SZ-21 MODULE
OBJECT_ID      = 2025-246C
CENTER_NAME    = EARTH
REF_FRAME      = TEME
TIME_SYSTEM    = UTC
MEAN_ELEMENT_THEORY = SGP/SGP4

EPOCH          = 2026-03-05T19:22:19.378272
MEAN_MOTION    = 15.68194204
ECCENTRICITY   = .0001428
INCLINATION    = 41.4734
RA_OF_ASC_NODE = 227.2544
ARG_OF_PERICENTER = 292.1430
MEAN_ANOMALY   = 67.9260

EPHEMERIS_TYPE = 0
CLASSIFICATION_TYPE = U
NORAD_CAT_ID   = 66515
ELEMENT_SET_NO = 999
REV_AT_EPOCH   = 1746
BSTAR          = .36032E-3
MEAN_MOTION_DOT = .4131E-3
MEAN_MOTION_DDOT = 0

