GSLV R/B                
1 54149U 22138AN  26064.70944186  .00004682  00000+0  40528-3 0  9997
2 54149  87.3887 167.6944 0022469 160.4976 199.7121 14.96742639183338
XRISM                   
1 57800U 23137A   26064.81039654  .00007125  00000+0  40521-3 0  9999
2 57800  31.0028 308.7544 0008081 358.9936   1.0685 15.11447555137208
ACS3                    
1 59588U 24077B   26064.82551608  .00028446  00000+0  22955-1 0  9995
2 59588  97.2101   6.8063 0056747  86.8820 273.8835 13.89413000 93660
SZ-21 MODULE            
1 66515U 25246C   26064.80716873  .00041310  00000+0  36032-3 0  9995
2 66515  41.4734 227.2544 0001428 292.1430  67.9260 15.68194204 17468
